{
  "norad_id": 41860,
  "name": "GSAT0212 (GALILEO 16)",
  "history": [
    {
      "epoch": "2026-03-28T19:45:52.580736Z",
      "apogee_km": 23234.80145064656,
      "perigee_km": 23209.47367971212,
      "latitude_deg": 3.332000592992032e-05,
      "longitude_deg": -19.402999662735297,
      "height_km": 23210.84110664777,
      "semi_major_axis_km": 29600.274565179338,
      "eccentricity": 0.00042783,
      "inclination_deg": 55.4444,
      "raan_deg": 103.3032,
      "arg_perigee_deg": 336.2015,
      "mean_anomaly_deg": 23.8319,
      "mean_motion_rev_day": 1.70474393
    }
  ]
}